TEST
1 53951U 22057BC  24103.34222925  .00048222  00000-0  10764-2 0  9996
2 53951  97.5617 230.1176 0004425 356.7326   3.3891 15.43389399104594